NOAA 1 [-]              
1 04793U 70106A   21050.60324612 -.00000055  00000-0 -64367-4 0  9991
2 04793 101.6234 120.2281 0031960 180.2344 346.3746 12.53998124297060
NOAA 2 (ITOS-D) [-]     
1 06235U 72082A   21050.41141531 -.00000024  00000-0  13765-3 0  9995
2 06235 101.8902  25.9366 0003869 281.7624 233.3197 12.53132079211461
NOAA 3 [-]              
1 06920U 73086A   21050.43763295 -.00000022  00000-0  17839-3 0  9994
2 06920 102.1440  26.8016 0006502 100.0896  54.2513 12.40342585140909
NOAA 4 [-]              
1 07529U 74089A   21050.39514654 -.00000024  00000-0  13297-3 0  9998
2 07529 101.8480  24.9719 0008943 311.6543 203.0837 12.53147601116030
NOAA 5 [-]              
1 09057U 76077A   21050.41500522 -.00000012  00000-0  24713-3 0  9999
2 09057 102.0269  20.0139 0009919 313.2839 216.3468 12.37757639 13975
TIROS N [-]             
1 11060U 78096A   21050.39584773 -.00000002  00000-0  20214-4 0  9998
2 11060  98.7055 110.1126 0011696  93.6244 266.6270 14.18296733403131
NOAA 6 [-]              
1 11416U 79057A   21050.44970169  .00000017  00000-0  22367-4 0  9991
2 11416  98.6659  55.5171 0009360 240.7405 119.2844 14.33618493172317
NOAA 7 [-]              
1 12553U 81059A   21050.56811038 -.00000023  00000-0  11575-4 0  9998
2 12553  99.0624  82.2511 0012232  51.1304 309.0959 14.17290384 49390
NOAA 8 [-]              
1 13923U 83022A   21050.35447430  .00000006  00000-0  19680-4 0  9995
2 13923  98.6452  38.9814 0015081 179.0968 181.0243 14.28726178973422
NOAA 9 [-]              
1 15427U 84123A   21050.46888317  .00000004  00000-0  24974-4 0  9994
2 15427  98.9782  12.1723 0015860  95.0828 338.4553 14.16122356868253
NOAA 10 [-]             
1 16969U 86073A   21050.52832083  .00000011  00000-0  21792-4 0  9991
2 16969  98.5245  41.8824 0011162 291.5935 144.2762 14.28124419791906
NOAA 11 [-]             
1 19531U 88089A   21050.55146549 -.00000012  00000-0  14564-4 0  9997
2 19531  98.4063  61.9222 0012094 127.6715 232.5559 14.15267989672512
NOAA 12 [-]             
1 21263U 91032A   21050.52349794 -.00000005  00000-0  15772-4 0  9992
2 21263  98.5062  59.2511 0012800 316.3484  43.6683 14.25932919547909
NOAA 13 [-]             
1 22739U 93050A   21050.44562093 -.00000003  00000-0  20168-4 0  9996
2 22739  98.4640  50.6558 0008432 290.2831  69.7436 14.12775672418850
NOAA 14 [-]             
1 23455U 94089A   21050.59742459 -.00000037  00000-0  21573-5 0  9996
2 23455  98.5095  96.8782 0008324 271.3590  88.6630 14.14156883348468
NOAA 15 [B]             
1 25338U 98030A   21050.55971803  .00000007  00000-0  21356-4 0  9995
2 25338  98.6959  80.0613 0009363 262.8478  97.1637 14.26013495184196
NOAA 16 [-]             
1 26536U 00055A   21050.42431236 -.00000021  00000-0  11360-4 0  9994
2 26536  98.7026 119.2241 0011613 102.9908 257.2562 14.13270793349122
NOAA 17 [-]             
1 27453U 02032A   21050.44889093  .00000015  00000-0  24969-4 0  9991
2 27453  98.6158 357.9948 0010695 234.9061 125.1117 14.25088914970063
NOAA 18 [B]             
1 28654U 05018A   21050.44189626  .00000068  00000-0  61281-4 0  9993
2 28654  99.0103 114.7602 0013400 253.3806 106.5895 14.12582351811786
NOAA 19 [+]             
1 33591U 09005A   21050.46496894  .00000008  00000-0  29831-4 0  9998
2 33591  99.1925  68.1948 0014899 102.8560 257.4276 14.12452429620002
SUOMI NPP [+]           
1 37849U 11061A   21050.46024168  .00000015  00000-0  27997-4 0  9993
2 37849  98.7272 350.7732 0000602  75.4455  34.3164 14.19551010482678
NOAA 20 [+]             
1 43013U 17073A   21050.47424238 -.00000004  00000-0  18824-4 0  9993
2 43013  98.7438 350.8762 0001152  70.6259 289.5042 14.19550686168708
